{
  "type": "FeatureCollection",
  "features": [
    {
      "type": "Feature",
      "properties": {
        "norad_id": 36828,
        "name": "BEIDOU-2 IGSO-1 (C06)",
        "group": "beidou",
        "lat": 44.28035014439529,
        "lon": -60.07839327809728,
        "alt_km": 35799.38665342894,
        "timestamp": "2025-12-26T05:31:12.772667+00:00",
        "meta_object_name": "BEIDOU-2 IGSO-1 (C06)",
        "meta_object_id": "2010-036A",
        "meta_epoch": "2025-12-25T21:06:51.904224",
        "meta_mean_motion": 1.00272533,
        "meta_eccentricity": 0.00515074,
        "meta_inclination": 54.2892,
        "meta_ra_of_asc_node": 164.5291,
        "meta_arg_of_pericenter": 215.7944,
        "meta_mean_anomaly": 138.9488,
        "meta_ephemeris_type": 0,
        "meta_classification_type": "U",
        "meta_norad_cat_id": 36828,
        "meta_element_set_no": 999,
        "meta_rev_at_epoch": 5635,
        "meta_bstar": 0,
        "meta_mean_motion_dot": -5.2e-07,
        "meta_mean_motion_ddot": 0,
        "tle_line1": "1 36828U 10036A   25359.87976741 -.00000052  00000+0  00000+0 0  9996",
        "tle_line2": "2 36828  54.2892 164.5291 0051507 215.7944 138.9488  1.00272533 56350"
      },
      "geometry": {
        "type": "Point",
        "coordinates": [
          -60.07839327809728,
          44.28035014439529
        ]
      }
    },
    {
      "type": "Feature",
      "properties": {
        "norad_id": 37210,
        "name": "BEIDOU-2 G4 (C04)",
        "group": "beidou",
        "lat": -3.226095791297385,
        "lon": -22.027756058956918,
        "alt_km": 35774.3245186184,
        "timestamp": "2025-12-26T05:31:12.772691+00:00",
        "meta_object_name": "BEIDOU-2 G4 (C04)",
        "meta_object_id": "2010-057A",
        "meta_epoch": "2025-12-25T19:04:40.718208",
        "meta_mean_motion": 1.0027141,
        "meta_eccentricity": 0.00104499,
        "meta_inclination": 3.2148,
        "meta_ra_of_asc_node": 69.8888,
        "meta_arg_of_pericenter": 194.0631,
        "meta_mean_anomaly": 276.8504,
        "meta_ephemeris_type": 0,
        "meta_classification_type": "U",
        "meta_norad_cat_id": 37210,
        "meta_element_set_no": 999,
        "meta_rev_at_epoch": 5555,
        "meta_bstar": 0,
        "meta_mean_motion_dot": -9.1e-07,
        "meta_mean_motion_ddot": 0,
        "tle_line1": "1 37210U 10057A   25359.79491572 -.00000091  00000+0  00000+0 0  9993",
        "tle_line2": "2 37210   3.2148  69.8888 0010449 194.0631 276.8504  1.00271410 55550"
      },
      "geometry": {
        "type": "Point",
        "coordinates": [
          -22.027756058956918,
          -3.226095791297385
        ]
      }
    },
    {
      "type": "Feature",
      "properties": {
        "norad_id": 37256,
        "name": "BEIDOU-2 IGSO-2 (C07)",
        "group": "beidou",
        "lat": 8.918037083759247,
        "lon": -77.86257393352551,
        "alt_km": 35969.11473215327,
        "timestamp": "2025-12-26T05:31:12.772705+00:00",
        "meta_object_name": "BEIDOU-2 IGSO-2 (C07)",
        "meta_object_id": "2010-068A",
        "meta_epoch": "2025-12-25T16:47:38.629824",
        "meta_mean_motion": 1.00282453,
        "meta_eccentricity": 0.00484524,
        "meta_inclination": 47.8622,
        "meta_ra_of_asc_node": 273.9905,
        "meta_arg_of_pericenter": 216.1586,
        "meta_mean_anomaly": 324.3055,
        "meta_ephemeris_type": 0,
        "meta_classification_type": "U",
        "meta_norad_cat_id": 37256,
        "meta_element_set_no": 999,
        "meta_rev_at_epoch": 5505,
        "meta_bstar": 0,
        "meta_mean_motion_dot": -1.97e-06,
        "meta_mean_motion_ddot": 0,
        "tle_line1": "1 37256U 10068A   25359.69975266 -.00000197  00000+0  00000+0 0  9998",
        "tle_line2": "2 37256  47.8622 273.9905 0048452 216.1586 324.3055  1.00282453 55053"
      },
      "geometry": {
        "type": "Point",
        "coordinates": [
          -77.86257393352551,
          8.918037083759247
        ]
      }
    },
    {
      "type": "Feature",
      "properties": {
        "norad_id": 37384,
        "name": "BEIDOU-2 IGSO-3 (C08)",
        "group": "beidou",
        "lat": -52.28670483122384,
        "lon": -95.0949902427612,
        "alt_km": 35708.88097207441,
        "timestamp": "2025-12-26T05:31:12.772718+00:00",
        "meta_object_name": "BEIDOU-2 IGSO-3 (C08)",
        "meta_object_id": "2011-013A",
        "meta_epoch": "2025-12-24T13:36:08.179776",
        "meta_mean_motion": 1.00268125,
        "meta_eccentricity": 0.00352821,
        "meta_inclination": 62.1584,
        "meta_ra_of_asc_node": 41.8043,
        "meta_arg_of_pericenter": 187.8377,
        "meta_mean_anomaly": 174.9924,
        "meta_ephemeris_type": 0,
        "meta_classification_type": "U",
        "meta_norad_cat_id": 37384,
        "meta_element_set_no": 999,
        "meta_rev_at_epoch": 5391,
        "meta_bstar": 0,
        "meta_mean_motion_dot": -1.63e-06,
        "meta_mean_motion_ddot": 0,
        "tle_line1": "1 37384U 11013A   25358.56676134 -.00000163  00000+0  00000+0 0  9991",
        "tle_line2": "2 37384  62.1584  41.8043 0035282 187.8377 174.9924  1.00268125 53913"
      },
      "geometry": {
        "type": "Point",
        "coordinates": [
          -95.0949902427612,
          -52.28670483122384
        ]
      }
    },
    {
      "type": "Feature",
      "properties": {
        "norad_id": 37763,
        "name": "BEIDOU-2 IGSO-4 (C09)",
        "group": "beidou",
        "lat": 52.232334882919474,
        "lon": -79.58824336446197,
        "alt_km": 36143.51919232613,
        "timestamp": "2025-12-26T05:31:12.772731+00:00",
        "meta_object_name": "BEIDOU-2 IGSO-4 (C09)",
        "meta_object_id": "2011-038A",
        "meta_epoch": "2025-12-21T10:06:26.864064",
        "meta_mean_motion": 1.00280083,
        "meta_eccentricity": 0.01491557,
        "meta_inclination": 54.5854,
        "meta_ra_of_asc_node": 167.2693,
        "meta_arg_of_pericenter": 230.0944,
        "meta_mean_anomaly": 299.1265,
        "meta_ephemeris_type": 0,
        "meta_classification_type": "U",
        "meta_norad_cat_id": 37763,
        "meta_element_set_no": 999,
        "meta_rev_at_epoch": 5286,
        "meta_bstar": 0,
        "meta_mean_motion_dot": 5.9e-07,
        "meta_mean_motion_ddot": 0,
        "tle_line1": "1 37763U 11038A   25355.42114426  .00000059  00000+0  00000+0 0  9995",
        "tle_line2": "2 37763  54.5854 167.2693 0149155 230.0944 299.1265  1.00280083 52867"
      },
      "geometry": {
        "type": "Point",
        "coordinates": [
          -79.58824336446197,
          52.232334882919474
        ]
      }
    },
    {
      "type": "Feature",
      "properties": {
        "norad_id": 37948,
        "name": "BEIDOU-2 IGSO-5 (C10)",
        "group": "beidou",
        "lat": -1.032851670897843,
        "lon": -87.23519462298066,
        "alt_km": 36115.90433669026,
        "timestamp": "2025-12-26T05:31:12.772744+00:00",
        "meta_object_name": "BEIDOU-2 IGSO-5 (C10)",
        "meta_object_id": "2011-073A",
        "meta_epoch": "2025-12-25T17:46:48.300384",
        "meta_mean_motion": 1.00288091,
        "meta_eccentricity": 0.01096686,
        "meta_inclination": 47.9959,
        "meta_ra_of_asc_node": 273.6993,
        "meta_arg_of_pericenter": 222.1113,
        "meta_mean_anomaly": 319.0848,
        "meta_ephemeris_type": 0,
        "meta_classification_type": "U",
        "meta_norad_cat_id": 37948,
        "meta_element_set_no": 999,
        "meta_rev_at_epoch": 5139,
        "meta_bstar": 0,
        "meta_mean_motion_dot": -1.42e-06,
        "meta_mean_motion_ddot": 0,
        "tle_line1": "1 37948U 11073A   25359.74083681 -.00000142  00000+0  00000+0 0  9990",
        "tle_line2": "2 37948  47.9959 273.6993 0109668 222.1113 319.0848  1.00288091 51397"
      },
      "geometry": {
        "type": "Point",
        "coordinates": [
          -87.23519462298066,
          -1.032851670897843
        ]
      }
    },
    {
      "type": "Feature",
      "properties": {
        "norad_id": 38091,
        "name": "BEIDOU-2 G5 (C05)",
        "group": "beidou",
        "lat": 0.7635798210781801,
        "lon": -123.61362471299151,
        "alt_km": 35764.07665342285,
        "timestamp": "2025-12-26T05:31:12.772756+00:00",
        "meta_object_name": "BEIDOU-2 G5 (C05)",
        "meta_object_id": "2012-008A",
        "meta_epoch": "2025-12-25T21:54:09.656928",
        "meta_mean_motion": 1.00270052,
        "meta_eccentricity": 0.00131298,
        "meta_inclination": 3.1399,
        "meta_ra_of_asc_node": 70.6602,
        "meta_arg_of_pericenter": 232.1831,
        "meta_mean_anomaly": 179.0905,
        "meta_ephemeris_type": 0,
        "meta_classification_type": "U",
        "meta_norad_cat_id": 38091,
        "meta_element_set_no": 999,
        "meta_rev_at_epoch": 5063,
        "meta_bstar": 0,
        "meta_mean_motion_dot": 7.8e-07,
        "meta_mean_motion_ddot": 0,
        "tle_line1": "1 38091U 12008A   25359.91261177  .00000078  00000+0  00000+0 0  9993",
        "tle_line2": "2 38091   3.1399  70.6602 0013129 232.1831 179.0905  1.00270052 50637"
      },
      "geometry": {
        "type": "Point",
        "coordinates": [
          -123.61362471299151,
          0.7635798210781801
        ]
      }
    }
  ]
}